NORAD_CAT_ID,OBJECT_NAME,OBJECT_TYPE,EPOCH,MEAN_MOTION,ECCENTRICITY,INCLINATION,RA_OF_ASC_NODE,ARG_OF_PERICENTER,MEAN_ANOMALY,BSTAR,MEAN_MOTION_DOT,MEAN_MOTION_DDOT,TLE_LINE0,TLE_LINE1,TLE_LINE2,SEMIMAJOR_AXIS,PERIOD,APOGEE,PERIGEE,DECAYED
52833.0,STARLINK-4086,PAYLOAD,2022-06-22 14:00:01,15.90575098,0.0040617,53.2176,20.5346,56.3004,76.7395,-0.0023608,-0.00806781,0.00020495,0 STARLINK-4086,1 52833U 22062D   22173.58334491 -.00806781  20495-3 -23608-2 0  9991,2 52833  53.2176  20.5346 0040617  56.3004  76.7395 15.90575098   807,6678.809,90.533,327.802,273.547,0.0
52833.0,STARLINK-4086,PAYLOAD,2022-06-22 22:00:00,15.90056083,0.0038269,53.2174,18.8452,56.7013,185.8198,-0.0025983,-0.00856209,0.00022694,0 STARLINK-4086,1 52833U 22062D   22173.91667824 -.00856209  22694-3 -25983-2 0  9998,2 52833  53.2174  18.8452 0038269  56.7013 185.8198 15.90056083  1304,6680.263000000001,90.563,327.69199999999995,276.563,0.0
52833.0,STARLINK-4086,PAYLOAD,2022-06-23 06:00:00,15.89502158,0.003435,53.2174,17.1535,57.527,293.8379,-0.0026338,-0.00832594,0.00021467,0 STARLINK-4086,1 52833U 22062D   22174.25001157 -.00832594  21467-3 -26338-2 0  9990,2 52833  53.2174  17.1535 0034350  57.5270 293.8379 15.89502158   902,6681.815,90.594,326.632,280.728,0.0
52833.0,STARLINK-4086,PAYLOAD,2022-06-23 14:00:01,15.88945207,0.0032604999999999,53.2177,15.4635,57.8978,41.6595,-0.0026239,-0.00802046,0.00019968,0 STARLINK-4086,1 52833U 22062D   22174.58334491 -.00802046  19968-3 -26239-2 0  9998,2 52833  53.2177  15.4635 0032605  57.8978  41.6595 15.88945207   966,6683.376,90.626,327.032,283.45,0.0
52833.0,STARLINK-4086,PAYLOAD,2022-06-23 22:00:00,15.8842279,0.0029848,53.2177,13.7781,58.1615,148.9225,-0.0028581999999999,-0.0084384,0.00021769,0 STARLINK-4086,1 52833U 22062D   22174.91667824 -.00843840  21769-3 -28582-2 0  9996,2 52833  53.2177  13.7781 0029848  58.1615 148.9225 15.88422790  1011,6684.840999999999,90.656,326.659,286.753,0.0
52833.0,STARLINK-4086,PAYLOAD,2022-06-24 06:00:02,15.87883781,0.00274,53.2174,12.0901,57.8192,256.214,-0.0029822,-0.00851471,0.00022014,0 STARLINK-4086,1 52833U 22062D   22175.25002315 -.00851471  22014-3 -29822-2 0  9993,2 52833  53.2174  12.0901 0027400  57.8192 256.2140 15.87883781  1066,6686.354,90.687,326.54,289.898,0.0
52833.0,STARLINK-4086,PAYLOAD,2022-06-24 14:00:01,15.87320442,0.0025103,53.2175,10.4046,59.3881,0.8176,-0.0029249,-0.00808002,0.00019931,0 STARLINK-4086,1 52833U 22062D   22175.58334491 -.00808002  19931-3 -29249-2 0  9991,2 52833  53.2175  10.4046 0025103  59.3881   0.8176 15.87320442  1308,6687.936,90.719,326.59,293.012,0.0
52833.0,STARLINK-4086,PAYLOAD,2022-06-24 20:00:01,15.86917467,0.002283,53.2173,9.1436,59.0768,350.3719,-0.0030278,-0.00815955,0.00020209,0 STARLINK-4086,1 52833U 22062D   22175.83334491 -.00815955  20209-3 -30278-2 0  9998,2 52833  53.2173   9.1436 0022830  59.0768 350.3719 15.86917467  1156,6689.068,90.742,326.204,295.6620000000001,0.0
52833.0,STARLINK-4086,PAYLOAD,2022-06-24 22:00:01,15.86785876,0.0022374,53.2176,8.722999999999999,58.9309,106.9161,-0.0030813,-0.00824185,0.00020552,0 STARLINK-4086,1 52833U 22062D   22175.91668981 -.00824185  20552-3 -30813-2 0  9992,2 52833  53.2176   8.7230 0022374  58.9309 106.9161 15.86785876  1308,6689.438,90.749,326.27,296.336,0.0
52833.0,STARLINK-4086,PAYLOAD,2022-06-25 14:00:01,15.85702878,0.0017514,53.2178,5.3578,59.3636,315.6209,-0.0032933,-0.00763534,0.0,0 STARLINK-4086,1 52833U 22062D   22176.58334491 -.00763534  00000-0 -32933-2 0  9990,2 52833  53.2178   5.3578 0017514  59.3636 315.6209 15.85702878  1274,6692.483,90.811,326.07,302.627,0.0
52833.0,STARLINK-4086,PAYLOAD,2022-06-25 22:00:00,15.85151032,0.0015145999999999,53.2175,3.6803,58.9617,59.6483,-0.003313,-0.0074611999999999,0.0,0 STARLINK-4086,1 52833U 22062D   22176.91667824 -.00746120  00000-0 -33130-2 0  9998,2 52833  53.2175   3.6803 0015146  58.9617  59.6483 15.85151032  1309,6694.0369999999975,90.843,326.04,305.763,0.0
52833.0,STARLINK-4086,PAYLOAD,2022-06-26 14:00:01,15.84085241,0.0010352,53.2176,0.3229,56.188,267.7741,-0.0036796,-0.00779103,0.0,0 STARLINK-4086,1 52833U 22062D   22177.58335648 -.00779103  00000-0 -36796-2 0  9996,2 52833  53.2176   0.3229 0010352  56.1880 267.7741 15.84085241  1432,6697.0390000000025,90.904,325.836,311.971,0.0
52833.0,STARLINK-4086,PAYLOAD,2022-06-26 22:00:00,15.83524067,0.0007827,53.2176,358.6493,53.1803,12.3891,-0.0036133,-0.0074563,0.0,0 STARLINK-4086,1 52833U 22062D   22177.91667824 -.00745630  00000-0 -36133-2 0  9990,2 52833  53.2176 358.6493 0007827  53.1803  12.3891 15.83524067  1308,6698.621,90.936,325.7290000000001,315.243,0.0
52833.0,STARLINK-4086,PAYLOAD,2022-06-27 06:00:00,15.82990972,0.0005186,53.2176,356.9731,44.0053,122.578,-0.0037977,-0.00761066,0.0,0 STARLINK-4086,1 52833U 22062D   22178.25001157 -.00761066  00000-0 -37977-2 0  9997,2 52833  53.2176 356.9731 0005186  44.0053 122.5780 15.82990972  1544,6700.125,90.967,325.464,318.515,0.0
52833.0,STARLINK-4086,PAYLOAD,2022-06-27 14:00:01,15.82459536,0.0003689,53.2176,355.3004,30.6294,236.3139,-0.0040045,-0.0078009,0.0,0 STARLINK-4086,1 52833U 22062D   22178.58334491 -.00780090  00000-0 -40045-2 0  9991,2 52833  53.2176 355.3004 0003689  30.6294 236.3139 15.82459536  1306,6701.625,90.998,325.962,321.017,0.0
52833.0,STARLINK-4086,PAYLOAD,2022-06-27 22:00:00,15.8190733,0.0002969,53.2173,353.6307,14.92,351.7378,-0.0040148,-0.00763198,0.0,0 STARLINK-4086,1 52833U 22062D   22178.91667824 -.00763198  00000-0 -40148-2 0  9991,2 52833  53.2173 353.6307 0002969  14.9200 351.7378 15.81907330  1645,6703.184,91.029,327.039,323.059,0.0
52833.0,STARLINK-4086,PAYLOAD,2022-06-28 14:00:01,15.80822897,0.0002925,53.2178,350.2897,12.3303,191.7971,-0.0042273,-0.00763816,0.0,0 STARLINK-4086,1 52833U 22062D   22179.58334491 -.00763816  00000-0 -42273-2 0  9994,2 52833  53.2178 350.2897 0002925  12.3303 191.7971 15.80822897  1302,6706.249,91.092,330.076,326.153,0.0
52833.0,STARLINK-4086,PAYLOAD,2022-06-28 22:00:00,15.80278891,0.000264,53.2175,348.6238,11.222,290.6613,-0.0043177,-0.00760882,0.0,0 STARLINK-4086,1 52833U 22062D   22179.91667824 -.00760882  00000-0 -43177-2 0  9994,2 52833  53.2175 348.6238 0002640  11.2220 290.6613 15.80278891  1300,6707.788000000001,91.123,331.4240000000001,327.88199999999995,0.0
52833.0,STARLINK-4086,PAYLOAD,2022-06-29 14:00:01,15.7919793,0.0003228,53.2174,345.291,355.4888,140.0054,-0.0045825,-0.00767986,0.0,0 STARLINK-4086,1 52833U 22062D   22180.58334491 -.00767986  00000-0 -45825-2 0  9994,2 52833  53.2174 345.2910 0003228 355.4888 140.0054 15.79197930  1304,6710.849,91.186,334.88,330.548,0.0
52833.0,STARLINK-4086,PAYLOAD,2022-06-29 22:00:00,15.78643678,0.0002446,53.2173,343.629,261.7386,329.5596,-0.004565,-0.00747479,0.0,0 STARLINK-4086,1 52833U 22062D   22180.91667824 -.00747479  00000-0 -45650-2 0  9991,2 52833  53.2173 343.6290 0002446 261.7386 329.5596 15.78643678  1308,6712.42,91.218,335.926,332.64300000000014,0.0
52833.0,STARLINK-4086,PAYLOAD,2022-06-30 06:00:00,15.78103111,8.149999999999999e-05,53.2175,341.9647,336.5524,349.8958,-0.004702,-0.00750524,0.0,0 STARLINK-4086,1 52833U 22062D   22181.25001157 -.00750524  00000-0 -47020-2 0  9998,2 52833  53.2175 341.9647 0000815 336.5524 349.8958 15.78103111  2019,6713.9519999999975,91.249,336.365,335.27,0.0
52833.0,STARLINK-4086,PAYLOAD,2022-06-30 14:00:01,15.77569431,0.0001335,53.2177,340.3045,31.4922,29.4486,-0.0049188,-0.00765258,0.0,0 STARLINK-4086,1 52833U 22062D   22181.58334491 -.00765258  00000-0 -49188-2 0  9991,2 52833  53.2177 340.3045 0001335  31.4922  29.4486 15.77569431  1305,6715.465999999999,91.28,338.228,336.435,0.0
52833.0,STARLINK-4086,PAYLOAD,2022-06-30 22:00:00,15.77021349,0.0001304,53.2173,338.6462,53.6136,101.1735,-0.0049699,-0.0075531,0.0,0 STARLINK-4086,1 52833U 22062D   22181.91667824 -.00755310  00000-0 -49699-2 0  9992,2 52833  53.2173 338.6462 0001304  53.6136 101.1735 15.77021349  2120,6717.022,91.311,339.7630000000001,338.011,0.0
52833.0,STARLINK-4086,PAYLOAD,2022-07-01 14:00:01,15.75941001,0.0001351,53.2174,335.3298,43.1409,297.3798,-0.0052761,-0.00763465,0.0,0 STARLINK-4086,1 52833U 22062D   22182.58334491 -.00763465  00000-0 -52761-2 0  9991,2 52833  53.2174 335.3298 0001351  43.1409 297.3798 15.75941001  1301,6720.092,91.374,342.865,341.0490000000001,0.0
52833.0,STARLINK-4086,PAYLOAD,2022-07-01 22:00:00,15.75396741,0.0001138,53.2171,333.6753,62.8796,9.5302,-0.0053745,-0.00759529,0.0,0 STARLINK-4086,1 52833U 22062D   22182.91667824 -.00759529  00000-0 -53745-2 0  9996,2 52833  53.2171 333.6753 0001138  62.8796   9.5302 15.75396741  2282,6721.639,91.406,344.269,342.74,0.0
52833.0,STARLINK-4086,PAYLOAD,2022-07-02 14:00:01,15.74311905,0.0001494,53.2177,330.3673,45.4017,208.8317,-0.0056431,-0.00760464,0.0,0 STARLINK-4086,1 52833U 22062D   22183.58334491 -.00760464  00000-0 -56431-2 0  9996,2 52833  53.2177 330.3673 0001494  45.4017 208.8317 15.74311905  1301,6724.727,91.469,347.597,345.587,0.0
52833.0,STARLINK-4086,PAYLOAD,2022-07-02 22:00:00,15.73680261,0.0001240999999999,53.2172,328.7165,65.2439,278.9367,-0.0036192,-0.00490073,0.0,0 STARLINK-4086,1 52833U 22062D   22183.91667824 -.00490073  00000-0 -36192-2 0  9990,2 52833  53.2172 328.7165 0001241  65.2439 278.9367 15.73680261  2432,6726.526,91.505,349.226,347.557,0.0
52833.0,STARLINK-4086,PAYLOAD,2022-07-03 06:00:00,15.73250586,0.0001203,53.2174,327.0642,53.5676,19.9222,-0.00053888,-0.00075733,0.0,0 STARLINK-4086,1 52833U 22062D   22184.25001157 -.00075733  00000-0 -53888-3 0  9993,2 52833  53.2174 327.0642 0001203  53.5676  19.9222 15.73250586  2499,6727.751,91.53,350.425,348.807,0.0
52833.0,STARLINK-4086,PAYLOAD,2022-07-03 14:00:01,15.73022855,0.0001466,53.2167,325.4167,54.6727,107.6554,0.0036997,0.00549932,0.0,0 STARLINK-4086,1 52833U 22062D   22184.58334491  .00549932  00000-0  36997-2 0  9995,2 52833  53.2167 325.4167 0001466  54.6727 107.6554 15.73022855  1303,6728.4,91.543,351.25199999999984,349.279,0.0
